STARLINK-30898          
1 58387U 23178P   26068.21598976  .00003240  00000+0  12139-3 0  9998
2 58387  53.1618   3.5166 0000935 101.4769 258.6337 15.30219296129816
2025-313BD              
1 67299U 25313BD  26068.62968741  .00081010  00000+0  27634-2 0  9995
2 67299  97.3970 145.2850 0007287 333.4514  26.6352 15.30002360 10838
