[{"OBJECT_NAME":"STARLINK-30898","OBJECT_ID":"2023-178P","EPOCH":"2026-03-09T05:11:01.515264","MEAN_MOTION":15.30219296,"ECCENTRICITY":9.359e-5,"INCLINATION":53.1618,"RA_OF_ASC_NODE":3.5166,"ARG_OF_PERICENTER":101.4769,"MEAN_ANOMALY":258.6337,"EPHEMERIS_TYPE":0,"CLASSIFICATION_TYPE":"U","NORAD_CAT_ID":58387,"ELEMENT_SET_NO":999,"REV_AT_EPOCH":12981,"BSTAR":0.00012138972,"MEAN_MOTION_DOT":3.24e-5,"MEAN_MOTION_DDOT":0},{"OBJECT_NAME":"OBJECT BD","OBJECT_ID":"2025-313BD","EPOCH":"2026-03-09T15:06:44.992224","MEAN_MOTION":15.3000236,"ECCENTRICITY":0.00072867,"INCLINATION":97.397,"RA_OF_ASC_NODE":145.285,"ARG_OF_PERICENTER":333.4514,"MEAN_ANOMALY":26.6352,"EPHEMERIS_TYPE":0,"CLASSIFICATION_TYPE":"U","NORAD_CAT_ID":67299,"ELEMENT_SET_NO":999,"REV_AT_EPOCH":1083,"BSTAR":0.0027633805,"MEAN_MOTION_DOT":0.0008101,"MEAN_MOTION_DDOT":0}]
